[{"OBJECT_NAME":"STARLINK-3504","OBJECT_ID":"2022-022AF","EPOCH":"2026-03-09T23:20:06.291456","MEAN_MOTION":15.08831295,"ECCENTRICITY":0.00013421,"INCLINATION":53.2199,"RA_OF_ASC_NODE":357.8527,"ARG_OF_PERICENTER":84.516,"MEAN_ANOMALY":275.5985,"EPHEMERIS_TYPE":0,"CLASSIFICATION_TYPE":"U","NORAD_CAT_ID":51881,"ELEMENT_SET_NO":999,"REV_AT_EPOCH":22334,"BSTAR":4.0877905e-5,"MEAN_MOTION_DOT":3.63e-6,"MEAN_MOTION_DDOT":0},{"OBJECT_NAME":"PSLV DEB","OBJECT_ID":"2001-049PF","EPOCH":"2026-02-25T09:35:51.227808","MEAN_MOTION":15.03011877,"ECCENTRICITY":0.00263657,"INCLINATION":98.0083,"RA_OF_ASC_NODE":118.9106,"ARG_OF_PERICENTER":265.6966,"MEAN_ANOMALY":94.1245,"EPHEMERIS_TYPE":0,"CLASSIFICATION_TYPE":"U","NORAD_CAT_ID":28853,"ELEMENT_SET_NO":999,"REV_AT_EPOCH":68879,"BSTAR":0.00037786861,"MEAN_MOTION_DOT":5.057e-5,"MEAN_MOTION_DDOT":0}]
